CCSDS_OMM_VERS,COMMENT,CREATION_DATE,ORIGINATOR,OBJECT_NAME,OBJECT_ID,CENTER_NAME,REF_FRAME,TIME_SYSTEM,MEAN_ELEMENT_THEORY,EPOCH,MEAN_MOTION,ECCENTRICITY,INCLINATION,RA_OF_ASC_NODE,ARG_OF_PERICENTER,MEAN_ANOMALY,EPHEMERIS_TYPE,CLASSIFICATION_TYPE,NORAD_CAT_ID,ELEMENT_SET_NO,REV_AT_EPOCH,BSTAR,MEAN_MOTION_DOT,MEAN_MOTION_DDOT,SEMIMAJOR_AXIS,PERIOD,APOAPSIS,PERIAPSIS,OBJECT_TYPE,RCS_SIZE,COUNTRY_CODE,LAUNCH_DATE,SITE,DECAY_DATE,FILE,GP_ID,TLE_LINE0,TLE_LINE1,TLE_LINE2
2,GENERATED VIA SPACE-TRACK.ORG API,2021-05-17T22:46:11,18 SPCS,STARLINK-1098,2020-001D,EARTH,TEME,UTC,SGP4,2021-05-17T12:31:29.170560,15.06384676,0.0001934,53.058,314.8414,102.625,257.4956,0,U,44917,999,7500,0.00024109,3.31e-05,0,6925.396,95.593,548.6,545.921,PAYLOAD,LARGE,US,2020-01-07,AFETR,,3037327,177380044,0 STARLINK-1098,1 44917U 20001D   21137.52186540  .00003310  00000-0  24109-3 0  9999,2 44917  53.0580 314.8414 0001934 102.6250 257.4956 15.06384676 75002
2,GENERATED VIA SPACE-TRACK.ORG API,2021-05-18T14:36:11,18 SPCS,STARLINK-1098,2020-001D,EARTH,TEME,UTC,SGP4,2021-05-18T09:13:29.473824,15.06400912,0.0001753,53.0581,310.9698,104.7341,255.3843,0,U,44917,999,7513,9.4808e-05,1.131e-05,0,6925.346,95.592,548.425,545.997,PAYLOAD,LARGE,US,2020-01-07,AFETR,,3037944,177417079,0 STARLINK-1098,1 44917U 20001D   21138.38436891  .00001131  00000-0  94808-4 0  9994,2 44917  53.0581 310.9698 0001753 104.7341 255.3843 15.06400912 75135
2,GENERATED VIA SPACE-TRACK.ORG API,2021-05-18T20:22:04,18 SPCS,STARLINK-1098,2020-001D,EARTH,TEME,UTC,SGP4,2021-05-18T12:24:34.081632,15.06402693,0.0001754,53.0581,310.3742,105.1881,254.9302,0,U,44917,999,7515,0.00010771,1.323e-05,0,6925.34,95.592,548.42,545.991,PAYLOAD,LARGE,US,2020-01-07,AFETR,,3037983,177436829,0 STARLINK-1098,1 44917U 20001D   21138.51706113  .00001323  00000-0  10771-3 0  9995,2 44917  53.0581 310.3742 0001754 105.1881 254.9302 15.06402693 75159
2,GENERATED VIA SPACE-TRACK.ORG API,2021-05-19T02:12:01,18 SPCS,STARLINK-1098,2020-001D,EARTH,TEME,UTC,SGP4,2021-05-18T18:46:43.449312,15.06403813,0.0001747,53.0581,309.1829,105.3722,254.746,0,U,44917,999,7519,0.00011366,1.412e-05,0,6925.337,95.592,548.412,545.992,PAYLOAD,LARGE,US,2020-01-07,AFETR,,3038155,177464370,0 STARLINK-1098,1 44917U 20001D   21138.78244733  .00001412  00000-0  11366-3 0  9999,2 44917  53.0581 309.1829 0001747 105.3722 254.7460 15.06403813 75191
2,GENERATED VIA SPACE-TRACK.ORG API,2021-05-19T15:46:11,18 SPCS,STARLINK-1098,2020-001D,EARTH,TEME,UTC,SGP4,2021-05-19T12:17:38.863968,15.06409485,0.0001743,53.058,305.9066,108.4982,251.6196,0,U,44917,999,7530,0.00012621,1.599e-05,0,6925.319,95.592,548.392,545.977,PAYLOAD,LARGE,US,2020-01-07,AFETR,,3038600,177477352,0 STARLINK-1098,1 44917U 20001D   21139.51225537  .00001599  00000-0  12621-3 0  9993,2 44917  53.0580 305.9066 0001743 108.4982 251.6196 15.06409485 75301
2,GENERATED VIA SPACE-TRACK.ORG API,2021-05-20T03:12:31,18 SPCS,STARLINK-1098,2020-001D,EARTH,TEME,UTC,SGP4,2021-05-19T20:15:21.109248,15.06401918,0.0001672,53.0582,304.4183,114.4634,245.653,0,U,44917,999,7535,5.1901e-05,4.92e-06,0,6925.343,95.592,548.366,546.05,PAYLOAD,LARGE,US,2020-01-07,AFETR,,3038837,177523702,0 STARLINK-1098,1 44917U 20001D   21139.84399432  .00000492  00000-0  51901-4 0  9991,2 44917  53.0582 304.4183 0001672 114.4634 245.6530 15.06401918 75352
2,GENERATED VIA SPACE-TRACK.ORG API,2021-05-20T07:06:16,18 SPCS,STARLINK-1098,2020-001D,EARTH,TEME,UTC,SGP4,2021-05-20T04:13:03.358848,15.06395287,0.0001594,53.0585,302.9286,114.8666,245.2489,0,U,44917,999,7540,-3.5572e-05,-8.11e-06,0,6925.363,95.592,548.332,546.124,PAYLOAD,LARGE,US,2020-01-07,AFETR,,3039042,177532462,0 STARLINK-1098,1 44917U 20001D   21140.17573332 -.00000811  00000-0 -35572-4 0  9995,2 44917  53.0585 302.9286 0001594 114.8666 245.2489 15.06395287 75400
2,GENERATED VIA SPACE-TRACK.ORG API,2021-05-20T22:08:02,18 SPCS,STARLINK-1098,2020-001D,EARTH,TEME,UTC,SGP4,2021-05-20T13:46:17.412096,15.0639737,0.0001598,53.0583,301.1416,111.8569,248.259,0,U,44917,999,7546,-2.6136e-05,-6.71e-06,0,6925.357,95.592,548.328,546.115,PAYLOAD,LARGE,US,2020-01-07,AFETR,,3039335,177558926,0 STARLINK-1098,1 44917U 20001D   21140.57381264 -.00000671  00000-0 -26136-4 0  9990,2 44917  53.0583 301.1416 0001598 111.8569 248.2590 15.06397370 75464
2,GENERATED VIA SPACE-TRACK.ORG API,2021-05-21T04:01:13,18 SPCS,STARLINK-1098,2020-001D,EARTH,TEME,UTC,SGP4,2021-05-20T20:08:26.721888,15.06399744,0.0001594,53.0583,299.9504,109.981,250.1351,0,U,44917,999,7550,-1.3433e-05,-4.82e-06,0,6925.349,95.592,548.318,546.11,PAYLOAD,LARGE,US,2020-01-07,AFETR,,3039572,177585376,0 STARLINK-1098,1 44917U 20001D   21140.83919817 -.00000482  00000-0 -13433-4 0  9996,2 44917  53.0583 299.9504 0001594 109.9810 250.1351 15.06399744 75508
2,GENERATED VIA SPACE-TRACK.ORG API,2021-05-21T20:34:26,18 SPCS,STARLINK-1098,2020-001D,EARTH,TEME,UTC,SGP4,2021-05-21T10:28:17.761152,15.06402093,0.0001587,53.0582,297.2699,111.5111,248.6047,0,U,44917,999,7559,-1.5806e-05,-5.17e-06,0,6925.342,95.592,548.306,546.108,PAYLOAD,LARGE,US,2020-01-07,AFETR,,3039735,177610961,0 STARLINK-1098,1 44917U 20001D   21141.43631668 -.00000517  00000-0 -15806-4 0  9993,2 44917  53.0582 297.2699 0001587 111.5111 248.6047 15.06402093 75593
2,GENERATED VIA SPACE-TRACK.ORG API,2021-05-21T23:06:11,18 SPCS,STARLINK-1098,2020-001D,EARTH,TEME,UTC,SGP4,2021-05-21T18:25:59.473344,15.064025,0.0001526,53.0582,295.7806,113.5549,246.5601,0,U,44917,999,7564,-3.2254e-05,-7.62e-06,0,6925.341,95.592,548.263,546.149,PAYLOAD,LARGE,US,2020-01-07,AFETR,,3040084,177623997,0 STARLINK-1098,1 44917U 20001D   21141.76804946 -.00000762  00000-0 -32254-4 0  9998,2 44917  53.0582 295.7806 0001526 113.5549 246.5601 15.06402500 75648
2,GENERATED VIA SPACE-TRACK.ORG API,2021-05-22T03:56:36,18 SPCS,STARLINK-1098,2020-001D,EARTH,TEME,UTC,SGP4,2021-05-21T21:37:04.163232,15.06402113,0.0001514,53.0582,295.1849,113.6687,246.4461,0,U,44917,999,7566,-1.5749e-05,-5.16e-06,0,6925.342,95.592,548.256,546.159,PAYLOAD,LARGE,US,2020-01-07,AFETR,,3040151,177644517,0 STARLINK-1098,1 44917U 20001D   21141.90074263 -.00000516  00000-0 -15749-4 0  9992,2 44917  53.0582 295.1849 0001514 113.6687 246.4461 15.06402113 75665
2,GENERATED VIA SPACE-TRACK.ORG API,2021-05-22T18:49:54,18 SPCS,STARLINK-1098,2020-001D,EARTH,TEME,UTC,SGP4,2021-05-22T13:32:27.757824,15.06398702,0.0001493,53.0582,292.2067,113.5807,246.5339,0,U,44917,999,7576,9.6847e-05,1.161e-05,0,6925.353,95.592,548.251,546.184,PAYLOAD,LARGE,US,2020-01-07,AFETR,,3040572,177675741,0 STARLINK-1098,1 44917U 20001D   21142.56421016  .00001161  00000-0  96847-4 0  9990,2 44917  53.0582 292.2067 0001493 113.5807 246.5339 15.06398702 75768
2,GENERATED VIA SPACE-TRACK.ORG API,2021-05-23T04:22:17,18 SPCS,STARLINK-1098,2020-001D,EARTH,TEME,UTC,SGP4,2021-05-22T16:43:33.104352,15.06391432,0.0001445,53.0582,291.6111,112.5843,247.5299,0,U,44917,999,7578,2.4671e-05,8.6e-07,0,6925.375,95.593,548.241,546.239,PAYLOAD,LARGE,US,2020-01-07,AFETR,,3040824,177703841,0 STARLINK-1098,1 44917U 20001D   21142.69691093  .00000086  00000-0  24671-4 0  9999,2 44917  53.0582 291.6111 0001445 112.5843 247.5299 15.06391432 75788
2,GENERATED VIA SPACE-TRACK.ORG API,2021-05-22T23:26:11,18 SPCS,STARLINK-1098,2020-001D,EARTH,TEME,UTC,SGP4,2021-05-22T16:43:33.104352,15.06391432,0.0001445,53.0582,291.6111,112.5843,247.5299,0,U,44917,999,7578,2.4671e-05,8.6e-07,0,6925.375,95.593,548.241,546.239,PAYLOAD,LARGE,US,2020-01-07,AFETR,,3040780,177684638,0 STARLINK-1098,1 44917U 20001D   21142.69691093  .00000086  00000-0  24671-4 0  9999,2 44917  53.0582 291.6111 0001445 112.5843 247.5299 15.06391432 75788
2,GENERATED VIA SPACE-TRACK.ORG API,2021-05-23T07:36:10,18 SPCS,STARLINK-1098,2020-001D,EARTH,TEME,UTC,SGP4,2021-05-23T02:16:48.065664,15.06384571,0.0001482,53.0582,289.8242,113.571,246.5435,0,U,44917,999,7584,-5.1295e-05,-1.045e-05,0,6925.396,95.593,548.287,546.235,PAYLOAD,LARGE,US,2020-01-07,AFETR,,3041015,177712343,0 STARLINK-1098,1 44917U 20001D   21143.09500076 -.00001045  00000-0 -51295-4 0  9994,2 44917  53.0582 289.8242 0001482 113.5710 246.5435 15.06384571 75841
2,GENERATED VIA SPACE-TRACK.ORG API,2021-05-23T19:20:22,18 SPCS,STARLINK-1098,2020-001D,EARTH,TEME,UTC,SGP4,2021-05-23T15:01:07.117248,15.06387658,0.0001503,53.0581,287.4416,114.0569,246.0578,0,U,44917,999,7592,-4.8139e-05,-9.98e-06,0,6925.386,95.593,548.292,546.21,PAYLOAD,LARGE,US,2020-01-07,AFETR,,3041263,177736774,0 STARLINK-1098,1 44917U 20001D   21143.62577682 -.00000998  00000-0 -48139-4 0  9999,2 44917  53.0581 287.4416 0001503 114.0569 246.0578 15.06387658 75920
2,GENERATED VIA SPACE-TRACK.ORG API,2021-05-24T04:04:06,18 SPCS,STARLINK-1098,2020-001D,EARTH,TEME,UTC,SGP4,2021-05-23T16:36:39.447072,15.06388453,0.0001495,53.0581,287.1437,113.5649,246.5497,0,U,44917,999,7593,-3.6454e-05,-8.24e-06,0,6925.384,95.593,548.284,546.214,PAYLOAD,LARGE,US,2020-01-07,AFETR,,3041473,177763436,0 STARLINK-1098,1 44917U 20001D   21143.69212323 -.00000824  00000-0 -36454-4 0  9999,2 44917  53.0581 287.1437 0001495 113.5649 246.5497 15.06388453 75933
2,GENERATED VIA SPACE-TRACK.ORG API,2021-05-24T18:55:49,18 SPCS,STARLINK-1098,2020-001D,EARTH,TEME,UTC,SGP4,2021-05-24T11:43:08.124672,15.0639085,0.0001476,53.058,283.57,113.9648,246.1496,0,U,44917,999,7605,-4.0229e-05,-8.8e-06,0,6925.377,95.593,548.264,546.219,PAYLOAD,LARGE,US,2020-01-07,AFETR,,3041973,177798932,0 STARLINK-1098,1 44917U 20001D   21144.48828848 -.00000880  00000-0 -40229-4 0  9999,2 44917  53.0580 283.5700 0001476 113.9648 246.1496 15.06390850 76050
2,GENERATED VIA SPACE-TRACK.ORG API,2021-05-24T15:36:10,18 SPCS,STARLINK-1098,2020-001D,EARTH,TEME,UTC,SGP4,2021-05-24T11:43:08.124672,15.0639085,0.0001476,53.058,283.57,113.9648,246.1496,0,U,44917,999,7605,-4.0229e-05,-8.8e-06,0,6925.377,95.593,548.264,546.219,PAYLOAD,LARGE,US,2020-01-07,AFETR,,3041927,177777624,0 STARLINK-1098,1 44917U 20001D   21144.48828848 -.00000880  00000-0 -40229-4 0  9999,2 44917  53.0580 283.5700 0001476 113.9648 246.1496 15.06390850 76050
